#dP2019  8  5  0  0  0.00000000      96 __u+U IGS08 FIT  IAC
## 2065  86400.00000000   900.00000000 58700 0.0000000000000
+  112   C01C02C03C04C05C06C07C08C09C10C11C12C13C14C16C19C20
+        C21C22C23C24C25C26C27C28C29C30C33C34E01E02E03E04E05
+        E07E08E09E11E12E13E14E15E18E19E21E24E25E26E27E30E31
+        E33E36G01G02G03G04G05G06G07G08G09G10G11G12G13G14G15
+        G16G17G18G19G20G21G22G23G24G25G26G27G28G29G30G31G32
+        J01J02J03J07R01R02R03R04R05R07R08R09R11R12R13R14R15
+        R16R17R18R19R20R21R22R23R24R26  0  0  0  0  0  0  0
++        15 14 15 15  0  9  8  8  8  8  8  8  8  7  9  7  8
++         7  7  8  8  8  8  8  8  8  8  8  8  4  4  4  5  4
++         4  4  4  4  4  4  4  4  4  4  4  4  4  4  4  4  4
++         4  5  3  3  3  5  3  3  3  3  3  3  3  3  3  3  3
++         3  3  3  3  3  3  3  3  3  3  3  3  3  3  3  3  3
++         8  8  8 15  7  5  5  5  5  5  5  5  5  5  6  5  5
++         6  5  5  6  6  5  5  5  6  8  0  0  0  0  0  0  0
%c M  cc GPS ccc cccc cccc cccc cccc ccccc ccccc ccccc ccccc
%c cc cc ccc ccc cccc cccc cccc cccc ccccc ccccc ccccc ccccc
%f  1.2500000  1.025000000  0.00000000000  0.000000000000000
%f  0.0000000  0.000000000  0.00000000000  0.000000000000000
%i    0    0    0    0      0      0      0      0         0
%i    0    0    0    0      0      0      0      0         0
/* INFORMATION & ANALYSIS CENTER (IAC)            FINAL DATA
/* S/V CLOCKS ARE ALIGNED TO GPS & GLONASS TIME RESPECTIVELY
/* USING THE BROADCAST EPHEMERIS                            
/* PCV:IGS14_2062 OL/AL:FES2004  NONE     YN ORB:CoN CLK:CoN
*  2019 08 05  7 30  0.00000000
PC01 -32320.235016  27062.634983   -411.572573    218.701260
PC02   4509.940454  41922.413194    831.772660     -8.941340
PC03 -14806.882716  39486.839716    541.483469   -272.566696
PC04 -39605.792520  14436.244147     74.299393    876.228521
PC05      0.000000      0.000000      0.000000 999999.999999
PC06 -19868.166640  37350.090976  -1992.691908    496.813908
PC07  -7622.007131  29292.577527 -29023.539471    -46.413079
PC08 -19556.512388  19606.075427  31748.404859    167.435250
PC09 -10971.980148  37801.384786 -15342.625537   -133.271051
PC10   4778.009377  35953.241347 -20974.108812    -52.354363
PC11 -14095.368236  20902.530425  11942.397860    230.471285
PC12 -23111.405323   6440.673342 -14121.168264    932.992254
PC13  -4820.868000  23217.227454  34888.392307   -890.441038
PC14 -10602.730271  17675.553617  18894.621759    515.757300
PC16 -18149.866094  37968.136279  -3786.007175   -880.346945
PC19  -2375.850164 -27657.253722  -2935.041291    164.922371
PC20   9607.404550 -19081.084049 -17952.462122     55.503447
PC21 -16216.153709  -1157.559706  22703.567405    373.999440
PC22 -13094.056164 -20310.253652  13994.989919     39.776296
PC23  21626.979982  15357.039991  -8638.654533   -921.499713
PC24 -15604.735185   9697.045121 -20997.486937   -946.435671
PC25   5014.184425  17694.169727 -20989.491922   -304.375822
PC26 -26190.019026  -2954.159908  -9132.604860    340.423889
PC27  23439.306478  -5811.631411  13954.148737    166.028140
PC28  12474.374533  10303.751164  22737.270650    160.165094
PC29   4943.819144 -20560.283885 -18218.368929    101.120725
PC30  20064.087853 -19180.340704  -2796.975639    170.334140
PC33   2427.068795  27623.269750   3030.290407   -287.728871
PC34 -20016.322832  19221.414378   3031.095676     21.833061
PE01 -15110.033455   7618.275107 -24282.844405   -661.989505
PE02  15055.826575  -7688.384010  24300.789751     72.521997
PE03  16447.957139 -19013.485071 -15633.001739   -196.069629
PE04  -6246.108711  28876.227863  -1779.858347   -337.970847
PE05  17107.460786   2111.870971 -24057.067422   -460.242549
PE07  -7764.902398 -21885.403746  18375.055523   -240.150282
PE08   5934.044221 -28944.986007   1931.114205   6312.720197
PE09   7849.253229  21744.722608 -18465.254244   6357.346060
PE11  13617.034707  12188.965044  23271.055390   5634.294464
PE12  -8820.640343  17730.128856  22001.573760   6263.592829
PE13 -13533.779353 -12119.693953 -23369.862226    390.992416
PE14   8209.538721  13082.801591  17578.467052   -669.595440
PE15   8346.880844 -17697.578666 -22208.905473    900.563942
PE18 -14680.970387 -14758.247479 -25116.735875   -764.668198
PE19 -16884.551780  17259.809358  17131.108625     -4.733798
PE21 -23893.413606 -10612.361489 -13890.065195   -547.824319
PE24  18562.322851  22630.096951  -4450.110622   5940.372869
PE25  23893.286721  10650.539455  13848.619323   1720.602433
PE26 -27591.712121    349.090539 -10705.637244   4259.724616
PE27 -18557.557015 -22587.267755   4681.545277    414.607409
PE30  -2351.756427 -21380.520144  20330.951951   4654.052219
PE31   2352.729953  21265.155963 -20438.972363   -467.071933
PE33 -25391.738043  12921.090100   8035.636476   -469.820930
PE36  27541.565504   -580.496862  10829.337194    678.744945
PG01 -13824.843888 -13498.125803 -18562.986926    -87.453029
PG02  -8972.631400  14723.441255  20780.298837   -275.984318
PG03 -13287.085733 -22925.862396   2403.112626    176.625625
PG04  12943.347851 -22781.357244   1407.957368     59.410594
PG05   -960.207368  21472.512104  15339.504005     -0.402271
PG06 -22677.960205   6859.828579  12074.407472    -15.301851
PG07 -24911.063022  -7026.393146   7273.703803    -78.769621
PG08   1083.918754 -21405.817721 -15522.752418     -1.469849
PG09 -15217.237861  -4326.834448  21294.378192    355.032936
PG10  15960.165169   -988.161532 -21177.207472     -2.850460
PG11  -9131.506347 -14017.073803 -21137.665757   -543.314007
PG12   9846.289766  24759.340390   -661.707863    217.112218
PG13 -11357.725170  22413.214461  -8626.632802    -51.226921
PG14  18537.620438 -18136.905923  -4934.695435    -68.118808
PG15   1834.258365  21445.671474 -15580.059412   -296.251450
PG16   3217.948284 -20689.796369  15883.932276    -62.269377
PG17 -19546.261547  12758.300863 -12184.966433    101.210595
PG18  -4310.887438 -15413.024770 -21715.375878     75.428133
PG19 -19722.888021  16343.420752  -7416.359525   -285.012720
PG20  19650.447777   7585.799589 -16378.218245    526.312506
PG21  26165.286320   2667.987793   3710.673753   -141.948177
PG22 -10101.835105 -24079.623272  -4890.699059   -740.077919
PG23  -6895.507500 -16295.343666  20038.293067   -173.784650
PG24  11292.277609  14402.221170 -19515.484141     -0.355432
PG25  17026.747413  17092.950605  11173.644180     -5.531519
PG26   9893.896055 -13068.351809  20847.428926      7.652917
PG27  11533.879524 -23298.977367  -4697.354771    -14.622574
PG28 -15229.178719   -141.820855 -21145.013602    765.337699
PG29  12274.546741   8048.402105  22100.198926    133.140245
PG30 -26387.786043    112.189576  -3823.524283    -13.267976
PG31  21961.380276  -7437.000832  13344.576013     19.488547
PG32  19203.183939 -12945.679904 -12828.018901      7.128410
PJ01 -25955.592100  25927.166886  25808.282987   -263.368960
PJ02 -25762.183601  15115.938560 -25334.511692     -1.981143
PJ03 -26651.534463  32326.516845    176.723467     -0.318087
PJ07 -25388.253192  33660.374336      5.815362     -0.044629
PR01  -5470.522588 -21803.571829  12076.905891     47.712762
PR02 -10782.512620  -2719.628354  22994.685717    381.749737
PR03  -9035.489580  15900.891923  17845.473137     -0.542977
PR04  -1691.629781  25395.953640   1832.615743    316.493506
PR05   6010.598375  20310.151070 -14216.339271     33.247592
PR07   8862.014466 -16324.909117 -17426.417589    -24.546778
PR08   2049.020101 -25293.630506  -2493.723919     16.355012
PR09  21582.337096   6719.440619  11765.282779     83.767051
PR11  -4232.748748 -14393.743549  20664.020760    -74.976268
PR12 -18031.474291 -15926.575708   8489.544069     49.991793
PR13 -22154.945124  -8094.701218  -9737.997207    -26.762503
PR14 -13064.184455   3953.210350 -21537.030741     41.643711
PR15   3412.880726  13908.251054 -21081.681668    103.401818
PR16  18445.309256  15672.654371  -8241.024285      6.572357
PR17 -21829.812848  12889.426816   2625.799170    249.365420
PR18 -10943.428230  14804.137968  17689.365127      2.744360
PR19   5584.396357   8863.270990  23251.273251    -46.356580
PR20  20709.174985  -3004.539001  14557.626269   -386.468571
PR21  21637.503494 -13120.771589  -3345.820795    -64.066690
PR22   8274.168210 -14189.460847 -19472.382173    -31.644682
PR23 -11040.905956  -5583.850536 -22319.584411    245.201402
PR24 -21491.317968   4600.258063 -12987.242726   -183.356327
PR26  19104.645746  -1414.986086  16865.082401    -12.666048
EOF
